[{"OBJECT_NAME":"STARLINK-5189","OBJECT_ID":"2022-136B","EPOCH":"2025-08-18T10:30:55.823904","MEAN_MOTION":15.08836107,"ECCENTRICITY":0.0001399,"INCLINATION":53.2173,"RA_OF_ASC_NODE":136.3674,"ARG_OF_PERICENTER":88.633,"MEAN_ANOMALY":271.4822,"EPHEMERIS_TYPE":0,"CLASSIFICATION_TYPE":"U","NORAD_CAT_ID":54052,"ELEMENT_SET_NO":999,"REV_AT_EPOCH":15672,"BSTAR":3.5214e-5,"MEAN_MOTION_DOT":2.72e-6,"MEAN_MOTION_DDOT":0},{"OBJECT_NAME":"STARLINK-5176","OBJECT_ID":"2022-136C","EPOCH":"2025-08-18T13:09:59.904864","MEAN_MOTION":15.08834091,"ECCENTRICITY":0.0001312,"INCLINATION":53.2165,"RA_OF_ASC_NODE":176.263,"ARG_OF_PERICENTER":86.5904,"MEAN_ANOMALY":273.5238,"EPHEMERIS_TYPE":0,"CLASSIFICATION_TYPE":"U","NORAD_CAT_ID":54053,"ELEMENT_SET_NO":999,"REV_AT_EPOCH":15617,"BSTAR":-4.1624e-6,"MEAN_MOTION_DOT":-3.54e-6,"MEAN_MOTION_DDOT":0},{"OBJECT_NAME":"STARLINK-5163","OBJECT_ID":"2022-136D","EPOCH":"2025-08-18T12:59:21.570432","MEAN_MOTION":15.08838012,"ECCENTRICITY":0.0001964,"INCLINATION":53.2168,"RA_OF_ASC_NODE":176.2162,"ARG_OF_PERICENTER":89.0253,"MEAN_ANOMALY":271.0964,"EPHEMERIS_TYPE":0,"CLASSIFICATION_TYPE":"U","NORAD_CAT_ID":54054,"ELEMENT_SET_NO":999,"REV_AT_EPOCH":15617,"BSTAR":1.2344e-5,"MEAN_MOTION_DOT":-9.2e-7,"MEAN_MOTION_DDOT":0},{"OBJECT_NAME":"STARLINK-5158","OBJECT_ID":"2022-136E","EPOCH":"2025-08-18T13:04:40.072800","MEAN_MOTION":15.08825954,"ECCENTRICITY":0.0001347,"INCLINATION":53.2168,"RA_OF_ASC_NODE":176.2404,"ARG_OF_PERICENTER":94.0824,"MEAN_ANOMALY":266.0322,"EPHEMERIS_TYPE":0,"CLASSIFICATION_TYPE":"U","NORAD_CAT_ID":54055,"ELEMENT_SET_NO":999,"REV_AT_EPOCH":15617,"BSTAR":-9.4165e-5,"MEAN_MOTION_DOT":-1.786e-5,"MEAN_MOTION_DDOT":0},{"OBJECT_NAME":"STARLINK-5226","OBJECT_ID":"2022-136F","EPOCH":"2025-08-18T13:20:28.140000","MEAN_MOTION":15.0883484,"ECCENTRICITY":0.000143,"INCLINATION":53.2167,"RA_OF_ASC_NODE":175.6106,"ARG_OF_PERICENTER":89.1351,"MEAN_ANOMALY":270.9805,"EPHEMERIS_TYPE":0,"CLASSIFICATION_TYPE":"U","NORAD_CAT_ID":54056,"ELEMENT_SET_NO":999,"REV_AT_EPOCH":15618,"BSTAR":-5.1261e-6,"MEAN_MOTION_DOT":-3.7e-6,"MEAN_MOTION_DDOT":0},{"OBJECT_NAME":"STARLINK-5167","OBJECT_ID":"2022-136H","EPOCH":"2025-08-18T06:21:53.739648","MEAN_MOTION":15.08840989,"ECCENTRICITY":0.0001368,"INCLINATION":53.2166,"RA_OF_ASC_NODE":177.3381,"ARG_OF_PERICENTER":91.1291,"MEAN_ANOMALY":268.9858,"EPHEMERIS_TYPE":0,"CLASSIFICATION_TYPE":"U","NORAD_CAT_ID":54058,"ELEMENT_SET_NO":999,"REV_AT_EPOCH":15613,"BSTAR":6.3127e-5,"MEAN_MOTION_DOT":7.17e-6,"MEAN_MOTION_DDOT":0},{"OBJECT_NAME":"STARLINK-5173","OBJECT_ID":"2022-136J","EPOCH":"2025-08-18T06:27:13.677984","MEAN_MOTION":15.08821348,"ECCENTRICITY":0.0001467,"INCLINATION":53.2179,"RA_OF_ASC_NODE":177.3638,"ARG_OF_PERICENTER":84.6222,"MEAN_ANOMALY":275.4937,"EPHEMERIS_TYPE":0,"CLASSIFICATION_TYPE":"U","NORAD_CAT_ID":54059,"ELEMENT_SET_NO":999,"REV_AT_EPOCH":15613,"BSTAR":-0.00010336,"MEAN_MOTION_DOT":-1.932e-5,"MEAN_MOTION_DDOT":0},{"OBJECT_NAME":"STARLINK-5169","OBJECT_ID":"2022-136K","EPOCH":"2025-08-18T11:49:03.537984","MEAN_MOTION":15.08844243,"ECCENTRICITY":0.0001377,"INCLINATION":53.2167,"RA_OF_ASC_NODE":145.9678,"ARG_OF_PERICENTER":87.8967,"MEAN_ANOMALY":272.2183,"EPHEMERIS_TYPE":0,"CLASSIFICATION_TYPE":"U","NORAD_CAT_ID":54060,"ELEMENT_SET_NO":999,"REV_AT_EPOCH":15659,"BSTAR":3.654e-5,"MEAN_MOTION_DOT":2.94e-6,"MEAN_MOTION_DDOT":0},{"OBJECT_NAME":"STARLINK-5209","OBJECT_ID":"2022-136L","EPOCH":"2025-08-18T11:47:03.829920","MEAN_MOTION":15.08840251,"ECCENTRICITY":0.0001544,"INCLINATION":53.2183,"RA_OF_ASC_NODE":140.9262,"ARG_OF_PERICENTER":84.8983,"MEAN_ANOMALY":275.2186,"EPHEMERIS_TYPE":0,"CLASSIFICATION_TYPE":"U","NORAD_CAT_ID":54061,"ELEMENT_SET_NO":999,"REV_AT_EPOCH":15666,"BSTAR":8.1923e-6,"MEAN_MOTION_DOT":-1.58e-6,"MEAN_MOTION_DDOT":0},{"OBJECT_NAME":"STARLINK-5170","OBJECT_ID":"2022-136M","EPOCH":"2025-08-18T06:16:35.259744","MEAN_MOTION":15.08842272,"ECCENTRICITY":0.0001445,"INCLINATION":53.2171,"RA_OF_ASC_NODE":177.316,"ARG_OF_PERICENTER":88.1547,"MEAN_ANOMALY":271.9611,"EPHEMERIS_TYPE":0,"CLASSIFICATION_TYPE":"U","NORAD_CAT_ID":54062,"ELEMENT_SET_NO":999,"REV_AT_EPOCH":15613,"BSTAR":8.1302e-5,"MEAN_MOTION_DOT":1.006e-5,"MEAN_MOTION_DDOT":0},{"OBJECT_NAME":"STARLINK-5225","OBJECT_ID":"2022-136N","EPOCH":"2025-08-18T03:00:30.830112","MEAN_MOTION":15.08838924,"ECCENTRICITY":0.0001432,"INCLINATION":53.2171,"RA_OF_ASC_NODE":177.8885,"ARG_OF_PERICENTER":90.4666,"MEAN_ANOMALY":269.649,"EPHEMERIS_TYPE":0,"CLASSIFICATION_TYPE":"U","NORAD_CAT_ID":54063,"ELEMENT_SET_NO":999,"REV_AT_EPOCH":15611,"BSTAR":3.4003e-5,"MEAN_MOTION_DOT":2.53e-6,"MEAN_MOTION_DDOT":0},{"OBJECT_NAME":"STARLINK-5172","OBJECT_ID":"2022-136P","EPOCH":"2025-08-18T00:14:17.919168","MEAN_MOTION":15.08838759,"ECCENTRICITY":0.0001378,"INCLINATION":53.2171,"RA_OF_ASC_NODE":133.6553,"ARG_OF_PERICENTER":88.2835,"MEAN_ANOMALY":271.8315,"EPHEMERIS_TYPE":0,"CLASSIFICATION_TYPE":"U","NORAD_CAT_ID":54064,"ELEMENT_SET_NO":999,"REV_AT_EPOCH":15672,"BSTAR":3.1126e-5,"MEAN_MOTION_DOT":2.07e-6,"MEAN_MOTION_DDOT":0},{"OBJECT_NAME":"STARLINK-5187","OBJECT_ID":"2022-136Q","EPOCH":"2025-08-18T13:57:35.979552","MEAN_MOTION":15.08842978,"ECCENTRICITY":0.0001229,"INCLINATION":53.2171,"RA_OF_ASC_NODE":175.7612,"ARG_OF_PERICENTER":97.7776,"MEAN_ANOMALY":262.3355,"EPHEMERIS_TYPE":0,"CLASSIFICATION_TYPE":"U","NORAD_CAT_ID":54065,"ELEMENT_SET_NO":999,"REV_AT_EPOCH":15618,"BSTAR":4.0015e-5,"MEAN_MOTION_DOT":3.49e-6,"MEAN_MOTION_DDOT":0},{"OBJECT_NAME":"STARLINK-5151","OBJECT_ID":"2022-136R","EPOCH":"2025-08-18T14:02:54.698784","MEAN_MOTION":15.08854403,"ECCENTRICITY":0.0001596,"INCLINATION":53.2189,"RA_OF_ASC_NODE":175.7874,"ARG_OF_PERICENTER":98.0325,"MEAN_ANOMALY":262.0848,"EPHEMERIS_TYPE":0,"CLASSIFICATION_TYPE":"U","NORAD_CAT_ID":54066,"ELEMENT_SET_NO":999,"REV_AT_EPOCH":15618,"BSTAR":0.00012594,"MEAN_MOTION_DOT":1.718e-5,"MEAN_MOTION_DDOT":0},{"OBJECT_NAME":"STARLINK-5174","OBJECT_ID":"2022-136S","EPOCH":"2025-08-18T13:46:59.507040","MEAN_MOTION":15.08837084,"ECCENTRICITY":0.000141,"INCLINATION":53.2175,"RA_OF_ASC_NODE":175.7155,"ARG_OF_PERICENTER":86.4003,"MEAN_ANOMALY":273.715,"EPHEMERIS_TYPE":0,"CLASSIFICATION_TYPE":"U","NORAD_CAT_ID":54067,"ELEMENT_SET_NO":999,"REV_AT_EPOCH":15618,"BSTAR":3.1159e-5,"MEAN_MOTION_DOT":2.08e-6,"MEAN_MOTION_DDOT":0},{"OBJECT_NAME":"STARLINK-5222","OBJECT_ID":"2022-136T","EPOCH":"2025-08-18T13:52:18.031008","MEAN_MOTION":15.08837725,"ECCENTRICITY":0.000158,"INCLINATION":53.2174,"RA_OF_ASC_NODE":175.7375,"ARG_OF_PERICENTER":85.0182,"MEAN_ANOMALY":275.0991,"EPHEMERIS_TYPE":0,"CLASSIFICATION_TYPE":"U","NORAD_CAT_ID":54068,"ELEMENT_SET_NO":999,"REV_AT_EPOCH":15618,"BSTAR":3.0969e-5,"MEAN_MOTION_DOT":2.05e-6,"MEAN_MOTION_DDOT":0},{"OBJECT_NAME":"STARLINK-5181","OBJECT_ID":"2022-136V","EPOCH":"2025-08-18T13:36:22.917888","MEAN_MOTION":15.08838593,"ECCENTRICITY":0.0001395,"INCLINATION":53.2177,"RA_OF_ASC_NODE":175.6707,"ARG_OF_PERICENTER":86.4428,"MEAN_ANOMALY":273.6724,"EPHEMERIS_TYPE":0,"CLASSIFICATION_TYPE":"U","NORAD_CAT_ID":54070,"ELEMENT_SET_NO":999,"REV_AT_EPOCH":15618,"BSTAR":4.9713e-5,"MEAN_MOTION_DOT":5.03e-6,"MEAN_MOTION_DDOT":0}]
