STARLINK-5189           
1 54052U 22136B   25230.43814611  .00000272  00000+0  35214-4 0  9999
2 54052  53.2173 136.3674 0001399  88.6330 271.4822 15.08836107156725
STARLINK-5176           
1 54053U 22136C   25230.54861001 -.00000354  00000+0 -41624-5 0  9993
2 54053  53.2165 176.2630 0001312  86.5904 273.5238 15.08834091156174
STARLINK-5163           
1 54054U 22136D   25230.54122188 -.00000092  00000+0  12344-4 0  9994
2 54054  53.2168 176.2162 0001964  89.0253 271.0964 15.08838012156172
STARLINK-5158           
1 54055U 22136E   25230.54490825 -.00001786  00000+0 -94165-4 0  9994
2 54055  53.2168 176.2404 0001347  94.0824 266.0322 15.08825954156170
STARLINK-5226           
1 54056U 22136F   25230.55588125 -.00000370  00000+0 -51261-5 0  9996
2 54056  53.2167 175.6106 0001430  89.1351 270.9805 15.08834840156180
STARLINK-5167           
1 54058U 22136H   25230.26520532  .00000717  00000+0  63127-4 0  9990
2 54058  53.2166 177.3381 0001368  91.1291 268.9858 15.08840989156132
STARLINK-5173           
1 54059U 22136J   25230.26890831 -.00001932  00000+0 -10336-3 0  9998
2 54059  53.2179 177.3638 0001467  84.6222 275.4937 15.08821348156132
STARLINK-5169           
1 54060U 22136K   25230.49240206  .00000294  00000+0  36540-4 0  9994
2 54060  53.2167 145.9678 0001377  87.8967 272.2183 15.08844243156594
STARLINK-5209           
1 54061U 22136L   25230.49101655 -.00000158  00000+0  81923-5 0  9995
2 54061  53.2183 140.9262 0001544  84.8983 275.2186 15.08840251156667
STARLINK-5170           
1 54062U 22136M   25230.26151921  .00001006  00000+0  81302-4 0  9994
2 54062  53.2171 177.3160 0001445  88.1547 271.9611 15.08842272156132
STARLINK-5225           
1 54063U 22136N   25230.12535683  .00000253  00000+0  34003-4 0  9990
2 54063  53.2171 177.8885 0001432  90.4666 269.6490 15.08838924156112
STARLINK-5172           
1 54064U 22136P   25230.00992962  .00000207  00000+0  31126-4 0  9997
2 54064  53.2171 133.6553 0001378  88.2835 271.8315 15.08838759156721
STARLINK-5187           
1 54065U 22136Q   25230.58166643  .00000349  00000+0  40015-4 0  9994
2 54065  53.2171 175.7612 0001229  97.7776 262.3355 15.08842978156186
STARLINK-5151           
1 54066U 22136R   25230.58535531  .00001718  00000+0  12594-3 0  9992
2 54066  53.2189 175.7874 0001596  98.0325 262.0848 15.08854403156187
STARLINK-5174           
1 54067U 22136S   25230.57429985  .00000208  00000+0  31159-4 0  9999
2 54067  53.2175 175.7155 0001410  86.4003 273.7150 15.08837084156185
STARLINK-5222           
1 54068U 22136T   25230.57798647  .00000205  00000+0  30969-4 0  9999
2 54068  53.2174 175.7375 0001580  85.0182 275.0991 15.08837725156180
STARLINK-5181           
1 54070U 22136V   25230.56693192  .00000503  00000+0  49713-4 0  9998
2 54070  53.2177 175.6707 0001395  86.4428 273.6724 15.08838593156188
